{"fetched_at":"2026-03-29T16:36:15Z","count":15609,"tles":[{"name":"STARLINK-11688 [DTC]","line1":"1 63756U 25089F   26087.62691087  .00221294  00000+0  16790-2 0  9997","line2":"2 63756  43.0002 178.1129 0001366 257.3507 102.7208 15.70891398 53001","category":"Starlink"}]}