{
  "norad_id": 63756,
  "name": "STARLINK-11688 [DTC]",
  "history": [
    {
      "epoch": "2026-03-28T15:02:45.099168",
      "apogee_km": 357.26809114369007,
      "perigee_km": 355.42822979784887,
      "latitude_deg": -42.19088293356087,
      "longitude_deg": -104.21655647992156,
      "semi_major_axis_km": 6734.485160470769,
      "eccentricity": 0.0001366,
      "inclination_deg": 43.0002,
      "raan_deg": 178.1129,
      "arg_perigee_deg": 257.3507,
      "mean_anomaly_deg": 102.7208,
      "mean_motion_rev_day": 15.70891398
    }
  ]
}